{"type": "FeatureCollection", "features": [ {"type": "Feature", "properties": {"norad_id": 41019, "name": "GPS BIIF-11 (PRN 10)", "group": "gnss", "lat": -45.37166047411624, "lon": -3.261931643690878, "alt_km": 20093.110389411064, "timestamp": "2025-12-08T05:48:09.278153+00:00", "meta": {"OBJECT_NAME": "GPS BIIF-11 (PRN 10)", "OBJECT_ID": "2015-062A", "EPOCH": "2025-12-07T07:48:52.356672", "MEAN_MOTION": 2.00566963, "ECCENTRICITY": 0.01106642, "INCLINATION": 56.8282, "RA_OF_ASC_NODE": 38.2118, "ARG_OF_PERICENTER": 229.7833, "MEAN_ANOMALY": 129.2989, "EPHEMERIS_TYPE": 0, "CLASSIFICATION_TYPE": "U", "NORAD_CAT_ID": 41019, "ELEMENT_SET_NO": 999, "REV_AT_EPOCH": 7398, "BSTAR": 0, "MEAN_MOTION_DOT": -7.2e-07, "MEAN_MOTION_DDOT": 0}, "tle": {"line1": "1 41019U 15062A   25341.32560598 -.00000072  00000+0  00000+0 0  9990", "line2": "2 41019  56.8282  38.2118 0110664 229.7833 129.2989  2.00566963 73987"}}, "geometry": {"type": "Point", "coordinates": [-3.261931643690878, -45.37166047411624]}}, {"type": "Feature", "properties": {"norad_id": 41028, "name": "GSAT-15 (GAGAN/PRN 139)", "group": "gnss", "lat": -0.013111399405213116, "lon": -102.20106258910117, "alt_km": 35774.61391901807, "timestamp": "2025-12-08T05:48:09.278167+00:00", "meta": {"OBJECT_NAME": "GSAT-15 (GAGAN/PRN 139)", "OBJECT_ID": "2015-065A", "EPOCH": "2025-12-07T22:25:38.600256", "MEAN_MOTION": 1.00270809, "ECCENTRICITY": 0.00029389, "INCLINATION": 0.0426, "RA_OF_ASC_NODE": 96.8345, "ARG_OF_PERICENTER": 142.0586, "MEAN_ANOMALY": 267.9709, "EPHEMERIS_TYPE": 0, "CLASSIFICATION_TYPE": "U", "NORAD_CAT_ID": 41028, "ELEMENT_SET_NO": 999, "REV_AT_EPOCH": 3688, "BSTAR": 0, "MEAN_MOTION_DOT": -2.55e-06, "MEAN_MOTION_DDOT": 0}, "tle": {"line1": "1 41028U 15065A   25341.93447454 -.00000255  00000+0  00000+0 0  9998", "line2": "2 41028   0.0426  96.8345 0002938 142.0586 267.9709  1.00270809 36884"}}, "geometry": {"type": "Point", "coordinates": [-102.20106258910117, -0.013111399405213116]}}, {"type": "Feature", "properties": {"norad_id": 41174, "name": "GSAT0209 (GALILEO 12)", "group": "gnss", "lat": -55.177384431804526, "lon": 5.002567851951377, "alt_km": 23228.548672527206, "timestamp": "2025-12-08T05:48:09.278179+00:00", "meta": {"OBJECT_NAME": "GSAT0209 (GALILEO 12)", "OBJECT_ID": "2015-079A", "EPOCH": "2025-12-01T22:43:10.411392", "MEAN_MOTION": 1.70474306, "ECCENTRICITY": 0.0002352, "INCLINATION": 55.7062, "RA_OF_ASC_NODE": 106.6773, "ARG_OF_PERICENTER": 357.4206, "MEAN_ANOMALY": 2.5431, "EPHEMERIS_TYPE": 0, "CLASSIFICATION_TYPE": "U", "NORAD_CAT_ID": 41174, "ELEMENT_SET_NO": 999, "REV_AT_EPOCH": 6141, "BSTAR": 0, "MEAN_MOTION_DOT": 3.5e-07, "MEAN_MOTION_DDOT": 0}, "tle": {"line1": "1 41174U 15079A   25335.94664828  .00000035  00000+0  00000+0 0  9990", "line2": "2 41174  55.7062 106.6773 0002352 357.4206   2.5431  1.70474306 61412"}}, "geometry": {"type": "Point", "coordinates": [5.002567851951377, -55.177384431804526]}}, {"type": "Feature", "properties": {"norad_id": 41175, "name": "GSAT0208 (GALILEO 11)", "group": "gnss", "lat": 40.346785873897296, "lon": -108.8956102592684, "alt_km": 23220.30117980084, "timestamp": "2025-12-08T05:48:09.278192+00:00", "meta": {"OBJECT_NAME": "GSAT0208 (GALILEO 11)", "OBJECT_ID": "2015-079B", "EPOCH": "2025-12-07T10:42:17.817120", "MEAN_MOTION": 1.70474201, "ECCENTRICITY": 0.00018539, "INCLINATION": 55.7081, "RA_OF_ASC_NODE": 106.5234, "ARG_OF_PERICENTER": 5.1909, "MEAN_ANOMALY": 354.7678, "EPHEMERIS_TYPE": 0, "CLASSIFICATION_TYPE": "U", "NORAD_CAT_ID": 41175, "ELEMENT_SET_NO": 999, "REV_AT_EPOCH": 6192, "BSTAR": 0, "MEAN_MOTION_DOT": 8e-08, "MEAN_MOTION_DDOT": 0}, "tle": {"line1": "1 41175U 15079B   25341.44603955  .00000008  00000+0  00000+0 0  9997", "line2": "2 41175  55.7081 106.5234 0001853   5.1909 354.7678  1.70474201 61922"}}, "geometry": {"type": "Point", "coordinates": [-108.8956102592684, 40.346785873897296]}}, {"type": "Feature", "properties": {"norad_id": 41241, "name": "IRNSS-1E", "group": "gnss", "lat": -17.505763880969013, "lon": -88.22798910213488, "alt_km": 35704.653211659526, "timestamp": "2025-12-08T05:48:09.278204+00:00", "meta": {"OBJECT_NAME": "IRNSS-1E", "OBJECT_ID": "2016-003A", "EPOCH": "2025-12-07T15:52:32.094912", "MEAN_MOTION": 1.00275984, "ECCENTRICITY": 0.00218847, "INCLINATION": 32.8144, "RA_OF_ASC_NODE": 62.5276, "ARG_OF_PERICENTER": 186.9179, "MEAN_ANOMALY": 177.1372, "EPHEMERIS_TYPE": 0, "CLASSIFICATION_TYPE": "U", "NORAD_CAT_ID": 41241, "ELEMENT_SET_NO": 999, "REV_AT_EPOCH": 3616, "BSTAR": 0, "MEAN_MOTION_DOT": -3.13e-06, "MEAN_MOTION_DDOT": 0}, "tle": {"line1": "1 41241U 16003A   25341.66148258 -.00000313  00000+0  00000+0 0  9993", "line2": "2 41241  32.8144  62.5276 0021884 186.9179 177.1372  1.00275984 36168"}}, "geometry": {"type": "Point", "coordinates": [-88.22798910213488, -17.505763880969013]}}, {"type": "Feature", "properties": {"norad_id": 41328, "name": "GPS BIIF-12 (PRN 32)", "group": "gnss", "lat": -46.10888119031344, "lon": -37.19427799336143, "alt_km": 19944.111024088383, "timestamp": "2025-12-08T05:48:09.278217+00:00", "meta": {"OBJECT_NAME": "GPS BIIF-12 (PRN 32)", "OBJECT_ID": "2016-007A", "EPOCH": "2025-12-07T09:47:29.747616", "MEAN_MOTION": 2.00560863, "ECCENTRICITY": 0.0091895, "INCLINATION": 55.4032, "RA_OF_ASC_NODE": 97.0687, "ARG_OF_PERICENTER": 243.44, "MEAN_ANOMALY": 115.5952, "EPHEMERIS_TYPE": 0, "CLASSIFICATION_TYPE": "U", "NORAD_CAT_ID": 41328, "ELEMENT_SET_NO": 999, "REV_AT_EPOCH": 7199, "BSTAR": 0, "MEAN_MOTION_DOT": -4e-08, "MEAN_MOTION_DDOT": 0}, "tle": {"line1": "1 41328U 16007A   25341.40798319 -.00000004  00000+0  00000+0 0  9991", "line2": "2 41328  55.4032  97.0687 0091895 243.4400 115.5952  2.00560863 71999"}}, "geometry": {"type": "Point", "coordinates": [-37.19427799336143, -46.10888119031344]}}, {"type": "Feature", "properties": {"norad_id": 41330, "name": "COSMOS 2514 (751)", "group": "gnss", "lat": -37.110406939809096, "lon": -60.98819593993086, "alt_km": 19139.11099669639, "timestamp": "2025-12-08T05:48:09.278263+00:00", "meta": {"OBJECT_NAME": "COSMOS 2514 (751)", "OBJECT_ID": "2016-008A", "EPOCH": "2025-12-06T21:19:17.818752", "MEAN_MOTION": 2.13102518, "ECCENTRICITY": 0.00123323, "INCLINATION": 65.1372, "RA_OF_ASC_NODE": 319.6044, "ARG_OF_PERICENTER": 219.9906, "MEAN_ANOMALY": 139.9121, "EPHEMERIS_TYPE": 0, "CLASSIFICATION_TYPE": "U", "NORAD_CAT_ID": 41330, "ELEMENT_SET_NO": 999, "REV_AT_EPOCH": 7652, "BSTAR": 0, "MEAN_MOTION_DOT": -4.9e-07, "MEAN_MOTION_DDOT": 0}, "tle": {"line1": "1 41330U 16008A   25340.88840068 -.00000049  00000+0  00000+0 0  9994", "line2": "2 41330  65.1372 319.6044 0012332 219.9906 139.9121  2.13102518 76520"}}, "geometry": {"type": "Point", "coordinates": [-60.98819593993086, -37.110406939809096]}}, {"type": "Feature", "properties": {"norad_id": 41384, "name": "IRNSS-1F", "group": "gnss", "lat": 4.8400052373477855, "lon": -163.58225480099836, "alt_km": 35777.26961694907, "timestamp": "2025-12-08T05:48:09.278278+00:00", "meta": {"OBJECT_NAME": "IRNSS-1F", "OBJECT_ID": "2016-015A", "EPOCH": "2025-12-07T22:20:59.593056", "MEAN_MOTION": 1.00269976, "ECCENTRICITY": 0.00224645, "INCLINATION": 4.8685, "RA_OF_ASC_NODE": 101.419, "ARG_OF_PERICENTER": 180.066, "MEAN_ANOMALY": 163.0743, "EPHEMERIS_TYPE": 0, "CLASSIFICATION_TYPE": "U", "NORAD_CAT_ID": 41384, "ELEMENT_SET_NO": 999, "REV_AT_EPOCH": 3574, "BSTAR": 0, "MEAN_MOTION_DOT": 1.6e-06, "MEAN_MOTION_DDOT": 0}, "tle": {"line1": "1 41384U 16015A   25341.93124529  .00000160  00000+0  00000+0 0  9998", "line2": "2 41384   4.8685 101.4190 0022464 180.0660 163.0743  1.00269976 35741"}}, "geometry": {"type": "Point", "coordinates": [-163.58225480099836, 4.8400052373477855]}}, {"type": "Feature", "properties": {"norad_id": 41434, "name": "BEIDOU-2 IGSO-6 (C13)", "group": "gnss", "lat": -30.299292604438232, "lon": -120.27915931396355, "alt_km": 35553.838362189694, "timestamp": "2025-12-08T05:48:09.278290+00:00", "meta": {"OBJECT_NAME": "BEIDOU-2 IGSO-6 (C13)", "OBJECT_ID": "2016-021A", "EPOCH": "2025-12-01T15:57:35.287200", "MEAN_MOTION": 1.00256562, "ECCENTRICITY": 0.00591323, "INCLINATION": 59.9483, "RA_OF_ASC_NODE": 40.0119, "ARG_OF_PERICENTER": 231.2834, "MEAN_ANOMALY": 130.8807, "EPHEMERIS_TYPE": 0, "CLASSIFICATION_TYPE": "U", "NORAD_CAT_ID": 41434, "ELEMENT_SET_NO": 999, "REV_AT_EPOCH": 3550, "BSTAR": 0, "MEAN_MOTION_DOT": -1.55e-06, "MEAN_MOTION_DDOT": 0}, "tle": {"line1": "1 41434U 16021A   25335.66499175 -.00000155  00000+0  00000+0 0  9991", "line2": "2 41434  59.9483  40.0119 0059132 231.2834 130.8807  1.00256562 35501"}}, "geometry": {"type": "Point", "coordinates": [-120.27915931396355, -30.299292604438232]}}, {"type": "Feature", "properties": {"norad_id": 41469, "name": "IRNSS-1G", "group": "gnss", "lat": -0.9508819437458139, "lon": -66.45241908488477, "alt_km": 35808.02338869772, "timestamp": "2025-12-08T05:48:09.278302+00:00", "meta": {"OBJECT_NAME": "IRNSS-1G", "OBJECT_ID": "2016-027A", "EPOCH": "2025-12-07T19:23:13.831008", "MEAN_MOTION": 1.00251719, "ECCENTRICITY": 0.000464, "INCLINATION": 4.7208, "RA_OF_ASC_NODE": 102.2264, "ARG_OF_PERICENTER": 336.4461, "MEAN_ANOMALY": 58.3131, "EPHEMERIS_TYPE": 0, "CLASSIFICATION_TYPE": "U", "NORAD_CAT_ID": 41469, "ELEMENT_SET_NO": 999, "REV_AT_EPOCH": 3526, "BSTAR": 0, "MEAN_MOTION_DOT": -3.35e-06, "MEAN_MOTION_DDOT": 0}, "tle": {"line1": "1 41469U 16027A   25341.80779897 -.00000335  00000+0  00000+0 0  9990", "line2": "2 41469   4.7208 102.2264 0004640 336.4461  58.3131  1.00251719 35268"}}, "geometry": {"type": "Point", "coordinates": [-66.45241908488477, -0.9508819437458139]}}]}